[{"OBJECT_NAME":"SL-14 R/B","OBJECT_ID":"1986-006B","EPOCH":"2026-03-03T15:58:04.213056","MEAN_MOTION":14.8680569,"ECCENTRICITY":0.0075186,"INCLINATION":82.5234,"RA_OF_ASC_NODE":265.4087,"ARG_OF_PERICENTER":293.1762,"MEAN_ANOMALY":66.1546,"EPHEMERIS_TYPE":0,"CLASSIFICATION_TYPE":"U","NORAD_CAT_ID":16496,"ELEMENT_SET_NO":999,"REV_AT_EPOCH":14831,"BSTAR":8.1026e-5,"MEAN_MOTION_DOT":7.85e-6,"MEAN_MOTION_DDOT":0},{"OBJECT_NAME":"COSMOS 1743","OBJECT_ID":"1986-034A","EPOCH":"2026-03-03T11:27:28.661184","MEAN_MOTION":15.58030499,"ECCENTRICITY":0.00022538,"INCLINATION":82.5291,"RA_OF_ASC_NODE":80.3487,"ARG_OF_PERICENTER":335.7563,"MEAN_ANOMALY":24.3586,"EPHEMERIS_TYPE":0,"CLASSIFICATION_TYPE":"U","NORAD_CAT_ID":16719,"ELEMENT_SET_NO":999,"REV_AT_EPOCH":17928,"BSTAR":0.0004711321,"MEAN_MOTION_DOT":0.00035452,"MEAN_MOTION_DDOT":0},{"OBJECT_NAME":"SL-14 R/B","OBJECT_ID":"1986-046B","EPOCH":"2026-03-03T13:02:20.675904","MEAN_MOTION":14.85583365,"ECCENTRICITY":0.0021655,"INCLINATION":82.4782,"RA_OF_ASC_NODE":85.9912,"ARG_OF_PERICENTER":246.8752,"MEAN_ANOMALY":113.0182,"EPHEMERIS_TYPE":0,"CLASSIFICATION_TYPE":"U","NORAD_CAT_ID":16792,"ELEMENT_SET_NO":999,"REV_AT_EPOCH":12549,"BSTAR":6.7753e-5,"MEAN_MOTION_DOT":6.12e-6,"MEAN_MOTION_DDOT":0},{"OBJECT_NAME":"SL-14 R/B","OBJECT_ID":"1986-055B","EPOCH":"2026-03-03T16:24:41.357664","MEAN_MOTION":14.85636306,"ECCENTRICITY":0.0018705,"INCLINATION":82.5212,"RA_OF_ASC_NODE":132.3189,"ARG_OF_PERICENTER":356.8629,"MEAN_ANOMALY":117.9735,"EPHEMERIS_TYPE":0,"CLASSIFICATION_TYPE":"U","NORAD_CAT_ID":16882,"ELEMENT_SET_NO":999,"REV_AT_EPOCH":11847,"BSTAR":6.7819e-5,"MEAN_MOTION_DOT":6.13e-6,"MEAN_MOTION_DDOT":0},{"OBJECT_NAME":"AJISAI (EGS)","OBJECT_ID":"1986-061A","EPOCH":"2026-03-03T18:45:21.283776","MEAN_MOTION":12.4451554,"ECCENTRICITY":0.0011252,"INCLINATION":50.0081,"RA_OF_ASC_NODE":111.516,"ARG_OF_PERICENTER":271.8255,"MEAN_ANOMALY":196.5801,"EPHEMERIS_TYPE":0,"CLASSIFICATION_TYPE":"U","NORAD_CAT_ID":16908,"ELEMENT_SET_NO":999,"REV_AT_EPOCH":46726,"BSTAR":0.00016477,"MEAN_MOTION_DOT":-7.4e-7,"MEAN_MOTION_DDOT":0},{"OBJECT_NAME":"COSMOS 1812","OBJECT_ID":"1987-003A","EPOCH":"2026-03-03T22:13:21.729216","MEAN_MOTION":16.25759646,"ECCENTRICITY":0.0008191,"INCLINATION":82.4705,"RA_OF_ASC_NODE":202.1959,"ARG_OF_PERICENTER":286.82,"MEAN_ANOMALY":73.2192,"EPHEMERIS_TYPE":0,"CLASSIFICATION_TYPE":"U","NORAD_CAT_ID":17295,"ELEMENT_SET_NO":999,"REV_AT_EPOCH":14355,"BSTAR":0.00075938,"MEAN_MOTION_DOT":0.02279208,"MEAN_MOTION_DDOT":-1.2226e-6},{"OBJECT_NAME":"SL-14 R/B","OBJECT_ID":"1987-024B","EPOCH":"2026-03-03T12:16:43.054752","MEAN_MOTION":14.86125276,"ECCENTRICITY":0.0016686,"INCLINATION":82.5253,"RA_OF_ASC_NODE":98.572,"ARG_OF_PERICENTER":282.2797,"MEAN_ANOMALY":77.6551,"EPHEMERIS_TYPE":0,"CLASSIFICATION_TYPE":"U","NORAD_CAT_ID":17567,"ELEMENT_SET_NO":999,"REV_AT_EPOCH":8721,"BSTAR":6.4631e-5,"MEAN_MOTION_DOT":5.91e-6,"MEAN_MOTION_DDOT":0},{"OBJECT_NAME":"COSMOS 1833","OBJECT_ID":"1987-027A","EPOCH":"2026-03-03T16:50:16.626912","MEAN_MOTION":14.13056095,"ECCENTRICITY":0.0024538,"INCLINATION":70.9233,"RA_OF_ASC_NODE":338.6032,"ARG_OF_PERICENTER":222.8242,"MEAN_ANOMALY":137.0968,"EPHEMERIS_TYPE":0,"CLASSIFICATION_TYPE":"U","NORAD_CAT_ID":17589,"ELEMENT_SET_NO":999,"REV_AT_EPOCH":947,"BSTAR":-4.3476e-5,"MEAN_MOTION_DOT":-1.3e-6,"MEAN_MOTION_DDOT":0},{"OBJECT_NAME":"SL-16 R/B","OBJECT_ID":"1987-027B","EPOCH":"2026-03-03T18:18:59.390496","MEAN_MOTION":14.17166385,"ECCENTRICITY":0.0003704,"INCLINATION":71.0018,"RA_OF_ASC_NODE":288.9846,"ARG_OF_PERICENTER":155.4877,"MEAN_ANOMALY":204.6423,"EPHEMERIS_TYPE":0,"CLASSIFICATION_TYPE":"U","NORAD_CAT_ID":17590,"ELEMENT_SET_NO":999,"REV_AT_EPOCH":1450,"BSTAR":-6.534e-5,"MEAN_MOTION_DOT":-1.8e-6,"MEAN_MOTION_DDOT":0},{"OBJECT_NAME":"SL-14 R/B","OBJECT_ID":"1987-038B","EPOCH":"2026-03-03T16:55:55.106688","MEAN_MOTION":14.85363133,"ECCENTRICITY":0.0019159,"INCLINATION":82.5013,"RA_OF_ASC_NODE":302.4453,"ARG_OF_PERICENTER":179.9345,"MEAN_ANOMALY":180.1877,"EPHEMERIS_TYPE":0,"CLASSIFICATION_TYPE":"U","NORAD_CAT_ID":17912,"ELEMENT_SET_NO":999,"REV_AT_EPOCH":7834,"BSTAR":6.2506e-5,"MEAN_MOTION_DOT":5.63e-6,"MEAN_MOTION_DDOT":0},{"OBJECT_NAME":"COSMOS 1844","OBJECT_ID":"1987-041A","EPOCH":"2026-03-03T09:20:56.091840","MEAN_MOTION":14.14553224,"ECCENTRICITY":0.00296591,"INCLINATION":70.8994,"RA_OF_ASC_NODE":47.4636,"ARG_OF_PERICENTER":27.3569,"MEAN_ANOMALY":332.9107,"EPHEMERIS_TYPE":0,"CLASSIFICATION_TYPE":"U","NORAD_CAT_ID":17973,"ELEMENT_SET_NO":999,"REV_AT_EPOCH":269,"BSTAR":-1.0019688e-5,"MEAN_MOTION_DOT":-6.8e-7,"MEAN_MOTION_DDOT":0},{"OBJECT_NAME":"SL-14 R/B","OBJECT_ID":"1987-055B","EPOCH":"2026-03-03T18:01:13.348416","MEAN_MOTION":14.85620973,"ECCENTRICITY":0.0021641,"INCLINATION":82.5029,"RA_OF_ASC_NODE":354.6268,"ARG_OF_PERICENTER":36.7993,"MEAN_ANOMALY":323.4704,"EPHEMERIS_TYPE":0,"CLASSIFICATION_TYPE":"U","NORAD_CAT_ID":18153,"ELEMENT_SET_NO":999,"REV_AT_EPOCH":6905,"BSTAR":8.7581e-5,"MEAN_MOTION_DOT":7.85e-6,"MEAN_MOTION_DDOT":0},{"OBJECT_NAME":"COSMOS 1867","OBJECT_ID":"1987-060A","EPOCH":"2026-03-03T03:41:22.185600","MEAN_MOTION":14.3150179,"ECCENTRICITY":0.00143877,"INCLINATION":65.012,"RA_OF_ASC_NODE":325.0088,"ARG_OF_PERICENTER":278.2415,"MEAN_ANOMALY":81.7037,"EPHEMERIS_TYPE":0,"CLASSIFICATION_TYPE":"U","NORAD_CAT_ID":18187,"ELEMENT_SET_NO":999,"REV_AT_EPOCH":1900,"BSTAR":4.0139661e-5,"MEAN_MOTION_DOT":7.0e-8,"MEAN_MOTION_DDOT":0},{"OBJECT_NAME":"SL-14 R/B","OBJECT_ID":"1988-001B","EPOCH":"2026-03-03T11:25:51.904416","MEAN_MOTION":14.8551863,"ECCENTRICITY":0.00166049,"INCLINATION":82.5142,"RA_OF_ASC_NODE":201.2028,"ARG_OF_PERICENTER":257.9558,"MEAN_ANOMALY":101.9797,"EPHEMERIS_TYPE":0,"CLASSIFICATION_TYPE":"U","NORAD_CAT_ID":18749,"ELEMENT_SET_NO":999,"REV_AT_EPOCH":4110,"BSTAR":8.5252217e-5,"MEAN_MOTION_DOT":7.61e-6,"MEAN_MOTION_DDOT":0},{"OBJECT_NAME":"COSMOS 1933","OBJECT_ID":"1988-020A","EPOCH":"2026-03-03T12:39:52.112736","MEAN_MOTION":15.17917348,"ECCENTRICITY":0.0003381,"INCLINATION":82.5095,"RA_OF_ASC_NODE":257.0105,"ARG_OF_PERICENTER":205.7954,"MEAN_ANOMALY":154.3112,"EPHEMERIS_TYPE":0,"CLASSIFICATION_TYPE":"U","NORAD_CAT_ID":18958,"ELEMENT_SET_NO":999,"REV_AT_EPOCH":4929,"BSTAR":0.00025799,"MEAN_MOTION_DOT":5.261e-5,"MEAN_MOTION_DDOT":0},{"OBJECT_NAME":"SL-3 R/B","OBJECT_ID":"1988-032B","EPOCH":"2026-03-03T17:47:34.170144","MEAN_MOTION":15.19823414,"ECCENTRICITY":0.0024096,"INCLINATION":97.518,"RA_OF_ASC_NODE":46.0136,"ARG_OF_PERICENTER":253.8032,"MEAN_ANOMALY":106.0551,"EPHEMERIS_TYPE":0,"CLASSIFICATION_TYPE":"U","NORAD_CAT_ID":19046,"ELEMENT_SET_NO":999,"REV_AT_EPOCH":5120,"BSTAR":0.00033954,"MEAN_MOTION_DOT":7.262e-5,"MEAN_MOTION_DDOT":0},{"OBJECT_NAME":"SL-16 R/B","OBJECT_ID":"1988-039B","EPOCH":"2026-03-03T11:56:44.899296","MEAN_MOTION":14.19615601,"ECCENTRICITY":0.00224123,"INCLINATION":71.013,"RA_OF_ASC_NODE":81.6418,"ARG_OF_PERICENTER":343.4793,"MEAN_ANOMALY":16.5599,"EPHEMERIS_TYPE":0,"CLASSIFICATION_TYPE":"U","NORAD_CAT_ID":19120,"ELEMENT_SET_NO":999,"REV_AT_EPOCH":95750,"BSTAR":6.0980234e-5,"MEAN_MOTION_DOT":8.1e-7,"MEAN_MOTION_DDOT":0}]
